{"type": "FeatureCollection", "features": [ {"type": "Feature", "properties": {"norad_id": 30941, "name": "FENGYUN 1C DEB", "group": "fengyun-1c-debris", "lat": -25.943551541712147, "lon": 28.71116895700547, "alt_km": 790.6276388170381, "timestamp": "2025-12-22T05:49:03.779237+00:00", "meta": {"OBJECT_NAME": "FENGYUN 1C DEB", "OBJECT_ID": "1999-025BAF", "EPOCH": "2025-12-19T01:20:41.519904", "MEAN_MOTION": 14.31096185, "ECCENTRICITY": 0.00336135, "INCLINATION": 98.546, "RA_OF_ASC_NODE": 209.773, "ARG_OF_PERICENTER": 298.6142, "MEAN_ANOMALY": 61.1661, "EPHEMERIS_TYPE": 0, "CLASSIFICATION_TYPE": "U", "NORAD_CAT_ID": 30941, "ELEMENT_SET_NO": 999, "REV_AT_EPOCH": 96716, "BSTAR": 0.0014340473, "MEAN_MOTION_DOT": 3.761e-05, "MEAN_MOTION_DDOT": 0}, "tle": {"line1": "1 30941U 99025BAF 25353.05603611  .00003761  00000+0  14340-2 0  9992", "line2": "2 30941  98.5460 209.7730 0033613 298.6142  61.1661 14.31096185967165"}}, "geometry": {"type": "Point", "coordinates": [28.71116895700547, -25.943551541712147]}}, {"type": "Feature", "properties": {"norad_id": 30942, "name": "FENGYUN 1C DEB", "group": "fengyun-1c-debris", "lat": 17.514767088526483, "lon": -8.538135810041348, "alt_km": 794.5254380934111, "timestamp": "2025-12-22T05:49:03.779248+00:00", "meta": {"OBJECT_NAME": "FENGYUN 1C DEB", "OBJECT_ID": "1999-025BAG", "EPOCH": "2025-12-20T23:26:39.005376", "MEAN_MOTION": 14.14845672, "ECCENTRICITY": 0.0138031, "INCLINATION": 98.6797, "RA_OF_ASC_NODE": 352.9939, "ARG_OF_PERICENTER": 82.907, "MEAN_ANOMALY": 333.8433, "EPHEMERIS_TYPE": 0, "CLASSIFICATION_TYPE": "U", "NORAD_CAT_ID": 30942, "ELEMENT_SET_NO": 999, "REV_AT_EPOCH": 96761, "BSTAR": 0.00019184, "MEAN_MOTION_DOT": 3.64e-06, "MEAN_MOTION_DDOT": 0}, "tle": {"line1": "1 30942U 99025BAG 25354.97684034  .00000364  00000+0  19184-3 0  9991", "line2": "2 30942  98.6797 352.9939 0138031  82.9070 333.8433 14.14845672967616"}}, "geometry": {"type": "Point", "coordinates": [-8.538135810041348, 17.514767088526483]}}, {"type": "Feature", "properties": {"norad_id": 30943, "name": "FENGYUN 1C DEB", "group": "fengyun-1c-debris", "lat": 3.4246797715495116, "lon": 9.336440834470825, "alt_km": 850.8114614254691, "timestamp": "2025-12-22T05:49:03.779258+00:00", "meta": {"OBJECT_NAME": "FENGYUN 1C DEB", "OBJECT_ID": "1999-025BAH", "EPOCH": "2025-12-20T07:38:18.723264", "MEAN_MOTION": 14.04497018, "ECCENTRICITY": 0.00507, "INCLINATION": 98.7975, "RA_OF_ASC_NODE": 8.0033, "ARG_OF_PERICENTER": 44.8439, "MEAN_ANOMALY": 315.6809, "EPHEMERIS_TYPE": 0, "CLASSIFICATION_TYPE": "U", "NORAD_CAT_ID": 30943, "ELEMENT_SET_NO": 999, "REV_AT_EPOCH": 95848, "BSTAR": 0.00028856793, "MEAN_MOTION_DOT": 4.23e-06, "MEAN_MOTION_DDOT": 0}, "tle": {"line1": "1 30943U 99025BAH 25354.31827226  .00000423  00000+0  28857-3 0  9995", "line2": "2 30943  98.7975   8.0033 0050700  44.8439 315.6809 14.04497018958488"}}, "geometry": {"type": "Point", "coordinates": [9.336440834470825, 3.4246797715495116]}}, {"type": "Feature", "properties": {"norad_id": 30944, "name": "FENGYUN 1C DEB", "group": "fengyun-1c-debris", "lat": 22.38651987750148, "lon": 48.77807598757812, "alt_km": 647.3425719367242, "timestamp": "2025-12-22T05:49:03.779268+00:00", "meta": {"OBJECT_NAME": "FENGYUN 1C DEB", "OBJECT_ID": "1999-025BAJ", "EPOCH": "2025-12-21T09:57:53.451936", "MEAN_MOTION": 14.52455383, "ECCENTRICITY": 0.0149268, "INCLINATION": 98.849, "RA_OF_ASC_NODE": 51.5851, "ARG_OF_PERICENTER": 74.6019, "MEAN_ANOMALY": 306.654, "EPHEMERIS_TYPE": 0, "CLASSIFICATION_TYPE": "U", "NORAD_CAT_ID": 30944, "ELEMENT_SET_NO": 999, "REV_AT_EPOCH": 99202, "BSTAR": 0.00011270452, "MEAN_MOTION_DOT": 4.74e-06, "MEAN_MOTION_DDOT": 0}, "tle": {"line1": "1 30944U 99025BAJ 25355.41520199  .00000474  00000+0  11270-3 0  9994", "line2": "2 30944  98.8490  51.5851 0149268  74.6019 306.6540 14.52455383992028"}}, "geometry": {"type": "Point", "coordinates": [48.77807598757812, 22.38651987750148]}}, {"type": "Feature", "properties": {"norad_id": 30945, "name": "FENGYUN 1C DEB", "group": "fengyun-1c-debris", "lat": 76.79968993996306, "lon": -39.21798581169084, "alt_km": 777.3385624634739, "timestamp": "2025-12-22T05:49:03.779278+00:00", "meta": {"OBJECT_NAME": "FENGYUN 1C DEB", "OBJECT_ID": "1999-025BAK", "EPOCH": "2025-12-21T17:57:06.659136", "MEAN_MOTION": 14.29782203, "ECCENTRICITY": 0.0030354, "INCLINATION": 99.3889, "RA_OF_ASC_NODE": 5.112, "ARG_OF_PERICENTER": 13.0212, "MEAN_ANOMALY": 43.9299, "EPHEMERIS_TYPE": 0, "CLASSIFICATION_TYPE": "U", "NORAD_CAT_ID": 30945, "ELEMENT_SET_NO": 999, "REV_AT_EPOCH": 96566, "BSTAR": 0.0013294, "MEAN_MOTION_DOT": 3.383e-05, "MEAN_MOTION_DDOT": 0}, "tle": {"line1": "1 30945U 99025BAK 25355.74799374  .00003383  00000+0  13294-2 0  9993", "line2": "2 30945  99.3889   5.1120 0030354  13.0212  43.9299 14.29782203965668"}}, "geometry": {"type": "Point", "coordinates": [-39.21798581169084, 76.79968993996306]}}, {"type": "Feature", "properties": {"norad_id": 30946, "name": "FENGYUN 1C DEB", "group": "fengyun-1c-debris", "lat": -54.132302105188685, "lon": 124.81014729532862, "alt_km": 787.2586637012591, "timestamp": "2025-12-22T05:49:03.779288+00:00", "meta": {"OBJECT_NAME": "FENGYUN 1C DEB", "OBJECT_ID": "1999-025BAL", "EPOCH": "2025-12-21T06:59:53.242944", "MEAN_MOTION": 14.48192935, "ECCENTRICITY": 0.00895927, "INCLINATION": 99.0397, "RA_OF_ASC_NODE": 111.0737, "ARG_OF_PERICENTER": 167.5285, "MEAN_ANOMALY": 222.4987, "EPHEMERIS_TYPE": 0, "CLASSIFICATION_TYPE": "U", "NORAD_CAT_ID": 30946, "ELEMENT_SET_NO": 999, "REV_AT_EPOCH": 98475, "BSTAR": 0.00055261504, "MEAN_MOTION_DOT": 2.114e-05, "MEAN_MOTION_DDOT": 0}, "tle": {"line1": "1 30946U 99025BAL 25355.29158846  .00002114  00000+0  55262-3 0  9990", "line2": "2 30946  99.0397 111.0737 0089592 167.5285 222.4987 14.48192935984751"}}, "geometry": {"type": "Point", "coordinates": [124.81014729532862, -54.132302105188685]}}, {"type": "Feature", "properties": {"norad_id": 30947, "name": "FENGYUN 1C DEB", "group": "fengyun-1c-debris", "lat": 31.478771247081138, "lon": -119.32818318403737, "alt_km": 830.9970169371281, "timestamp": "2025-12-22T05:49:03.779298+00:00", "meta": {"OBJECT_NAME": "FENGYUN 1C DEB", "OBJECT_ID": "1999-025BAM", "EPOCH": "2025-12-20T03:34:14.171232", "MEAN_MOTION": 14.38053367, "ECCENTRICITY": 0.00958187, "INCLINATION": 98.8089, "RA_OF_ASC_NODE": 243.9739, "ARG_OF_PERICENTER": 225.5648, "MEAN_ANOMALY": 133.7669, "EPHEMERIS_TYPE": 0, "CLASSIFICATION_TYPE": "U", "NORAD_CAT_ID": 30947, "ELEMENT_SET_NO": 999, "REV_AT_EPOCH": 98599, "BSTAR": 0.00018349198, "MEAN_MOTION_DOT": 5.37e-06, "MEAN_MOTION_DDOT": 0}, "tle": {"line1": "1 30947U 99025BAM 25354.14877513  .00000537  00000+0  18349-3 0  9995", "line2": "2 30947  98.8089 243.9739 0095818 225.5648 133.7669 14.38053367985992"}}, "geometry": {"type": "Point", "coordinates": [-119.32818318403737, 31.478771247081138]}}, {"type": "Feature", "properties": {"norad_id": 30949, "name": "FENGYUN 1C DEB", "group": "fengyun-1c-debris", "lat": -38.0714355211122, "lon": 163.45418989175272, "alt_km": 814.3581966027996, "timestamp": "2025-12-22T05:49:03.779308+00:00", "meta": {"OBJECT_NAME": "FENGYUN 1C DEB", "OBJECT_ID": "1999-025BAP", "EPOCH": "2025-12-21T17:44:19.441824", "MEAN_MOTION": 14.14057232, "ECCENTRICITY": 0.0116115, "INCLINATION": 98.6981, "RA_OF_ASC_NODE": 349.8512, "ARG_OF_PERICENTER": 283.9596, "MEAN_ANOMALY": 255.1106, "EPHEMERIS_TYPE": 0, "CLASSIFICATION_TYPE": "U", "NORAD_CAT_ID": 30949, "ELEMENT_SET_NO": 999, "REV_AT_EPOCH": 96643, "BSTAR": 0.00019866, "MEAN_MOTION_DOT": 3.59e-06, "MEAN_MOTION_DDOT": 0}, "tle": {"line1": "1 30949U 99025BAP 25355.73911391  .00000359  00000+0  19866-3 0  9993", "line2": "2 30949  98.6981 349.8512 0116115 283.9596 255.1106 14.14057232966434"}}, "geometry": {"type": "Point", "coordinates": [163.45418989175272, -38.0714355211122]}}, {"type": "Feature", "properties": {"norad_id": 30954, "name": "FENGYUN 1C DEB", "group": "fengyun-1c-debris", "lat": -63.952193690995436, "lon": 114.41991420974747, "alt_km": 913.9958470509964, "timestamp": "2025-12-22T05:49:03.779318+00:00", "meta": {"OBJECT_NAME": "FENGYUN 1C DEB", "OBJECT_ID": "1999-025BAU", "EPOCH": "2025-12-21T01:52:49.253376", "MEAN_MOTION": 14.14967477, "ECCENTRICITY": 0.0128914, "INCLINATION": 98.7125, "RA_OF_ASC_NODE": 94.9988, "ARG_OF_PERICENTER": 163.7109, "MEAN_ANOMALY": 323.6683, "EPHEMERIS_TYPE": 0, "CLASSIFICATION_TYPE": "U", "NORAD_CAT_ID": 30954, "ELEMENT_SET_NO": 999, "REV_AT_EPOCH": 96505, "BSTAR": 0.00077551123, "MEAN_MOTION_DOT": 1.583e-05, "MEAN_MOTION_DDOT": 0}, "tle": {"line1": "1 30954U 99025BAU 25355.07834784  .00001583  00000+0  77551-3 0  9991", "line2": "2 30954  98.7125  94.9988 0128914 163.7109 323.6683 14.14967477965050"}}, "geometry": {"type": "Point", "coordinates": [114.41991420974747, -63.952193690995436]}}, {"type": "Feature", "properties": {"norad_id": 30956, "name": "FENGYUN 1C DEB", "group": "fengyun-1c-debris", "lat": -79.89509235605253, "lon": 150.17968419637413, "alt_km": 829.5282550261454, "timestamp": "2025-12-22T05:49:03.779329+00:00", "meta": {"OBJECT_NAME": "FENGYUN 1C DEB", "OBJECT_ID": "1999-025BAW", "EPOCH": "2025-12-21T01:31:57.988704", "MEAN_MOTION": 14.14235145, "ECCENTRICITY": 0.00491177, "INCLINATION": 98.7589, "RA_OF_ASC_NODE": 28.9167, "ARG_OF_PERICENTER": 318.7398, "MEAN_ANOMALY": 69.7504, "EPHEMERIS_TYPE": 0, "CLASSIFICATION_TYPE": "U", "NORAD_CAT_ID": 30956, "ELEMENT_SET_NO": 999, "REV_AT_EPOCH": 96425, "BSTAR": 0.00065219968, "MEAN_MOTION_DOT": 1.215e-05, "MEAN_MOTION_DDOT": 0}, "tle": {"line1": "1 30956U 99025BAW 25355.06386561  .00001215  00000+0  65220-3 0  9999", "line2": "2 30956  98.7589  28.9167 0049117 318.7398  69.7504 14.14235145964252"}}, "geometry": {"type": "Point", "coordinates": [150.17968419637413, -79.89509235605253]}}]}